<?xml version="1.0" encoding="utf-8"?>
<gpx version="1.1" creator="IsraelHikingMap_single_track" xmlns="http://www.topografix.com/GPX/1/1">
	<metadata>
		<bounds minlat="31.83421" minlon="34.91036" maxlat="31.840887" maxlon="34.932575" />
	</metadata>
	<trk>
		<name>יער המגינים 5.17 ק"מ</name>
		<desc />
		<extensions>
			<Color xmlns="">#FF6600</Color>
			<Opacity xmlns="">0.8</Opacity>
			<Weight xmlns="">9</Weight>
		</extensions>
		<trkseg>
			<trkpt lat="31.834407051720575" lon="34.910434594342746">
				<ele>170.20386881456528</ele>
			</trkpt>
			<trkpt lat="31.834412" lon="34.910402">
				<ele>169.5</ele>
			</trkpt>
			<trkpt lat="31.834445" lon="34.910409">
				<ele>170</ele>
			</trkpt>
			<trkpt lat="31.834447" lon="34.910736">
				<ele>173</ele>
			</trkpt>
			<trkpt lat="31.834546" lon="34.910963">
				<ele>175</ele>
			</trkpt>
			<trkpt lat="31.834771" lon="34.911398">
				<ele>179</ele>
			</trkpt>
			<trkpt lat="31.834818" lon="34.911556">
				<ele>180</ele>
			</trkpt>
			<trkpt lat="31.83481" lon="34.911683">
				<ele>181</ele>
			</trkpt>
			<trkpt lat="31.834697" lon="34.912041">
				<ele>183</ele>
			</trkpt>
			<trkpt lat="31.834665" lon="34.912206">
				<ele>184</ele>
			</trkpt>
			<trkpt lat="31.834616" lon="34.912755">
				<ele>186</ele>
			</trkpt>
			<trkpt lat="31.834575" lon="34.914027">
				<ele>184</ele>
			</trkpt>
			<trkpt lat="31.834598" lon="34.914237">
				<ele>181</ele>
			</trkpt>
			<trkpt lat="31.834646" lon="34.914442">
				<ele>182</ele>
			</trkpt>
			<trkpt lat="31.834811" lon="34.914864">
				<ele>180</ele>
			</trkpt>
			<trkpt lat="31.83494" lon="34.91512">
				<ele>180</ele>
			</trkpt>
			<trkpt lat="31.835104" lon="34.91559">
				<ele>180</ele>
			</trkpt>
			<trkpt lat="31.835271" lon="34.915966">
				<ele>180</ele>
			</trkpt>
			<trkpt lat="31.835352" lon="34.916046">
				<ele>180</ele>
			</trkpt>
			<trkpt lat="31.835487" lon="34.916105">
				<ele>182</ele>
			</trkpt>
			<trkpt lat="31.835559" lon="34.916109">
				<ele>182</ele>
			</trkpt>
			<trkpt lat="31.835689" lon="34.916153">
				<ele>182</ele>
			</trkpt>
			<trkpt lat="31.835927" lon="34.916272">
				<ele>182</ele>
			</trkpt>
			<trkpt lat="31.836134" lon="34.916547">
				<ele>183</ele>
			</trkpt>
			<trkpt lat="31.83612" lon="34.916757">
				<ele>181</ele>
			</trkpt>
			<trkpt lat="31.836091" lon="34.916835">
				<ele>180</ele>
			</trkpt>
			<trkpt lat="31.83593" lon="34.917058">
				<ele>177</ele>
			</trkpt>
			<trkpt lat="31.835914" lon="34.917106">
				<ele>176</ele>
			</trkpt>
			<trkpt lat="31.835925" lon="34.917261">
				<ele>175</ele>
			</trkpt>
			<trkpt lat="31.835986" lon="34.917365">
				<ele>175</ele>
			</trkpt>
			<trkpt lat="31.836229" lon="34.917616">
				<ele>175</ele>
			</trkpt>
			<trkpt lat="31.836372" lon="34.917807">
				<ele>176</ele>
			</trkpt>
			<trkpt lat="31.836433" lon="34.917912">
				<ele>176</ele>
			</trkpt>
			<trkpt lat="31.836492" lon="34.918067">
				<ele>176</ele>
			</trkpt>
			<trkpt lat="31.836516" lon="34.91819">
				<ele>176</ele>
			</trkpt>
			<trkpt lat="31.836519" lon="34.918317">
				<ele>176</ele>
			</trkpt>
			<trkpt lat="31.836466" lon="34.918519">
				<ele>177</ele>
			</trkpt>
			<trkpt lat="31.836412" lon="34.918628">
				<ele>176</ele>
			</trkpt>
			<trkpt lat="31.836222" lon="34.91888">
				<ele>175</ele>
			</trkpt>
			<trkpt lat="31.836183" lon="34.918998">
				<ele>176</ele>
			</trkpt>
			<trkpt lat="31.836172" lon="34.919082">
				<ele>175</ele>
			</trkpt>
			<trkpt lat="31.836188" lon="34.919207">
				<ele>175</ele>
			</trkpt>
			<trkpt lat="31.836216" lon="34.919285">
				<ele>175</ele>
			</trkpt>
			<trkpt lat="31.836246" lon="34.919343">
				<ele>176</ele>
			</trkpt>
			<trkpt lat="31.83644" lon="34.919719">
				<ele>177</ele>
			</trkpt>
			<trkpt lat="31.836497" lon="34.919874">
				<ele>177</ele>
			</trkpt>
			<trkpt lat="31.836523" lon="34.920041">
				<ele>179</ele>
			</trkpt>
			<trkpt lat="31.836515" lon="34.92021">
				<ele>179</ele>
			</trkpt>
			<trkpt lat="31.836482" lon="34.920331">
				<ele>182</ele>
			</trkpt>
			<trkpt lat="31.836442" lon="34.920401">
				<ele>182</ele>
			</trkpt>
			<trkpt lat="31.836188" lon="34.920627">
				<ele>185</ele>
			</trkpt>
			<trkpt lat="31.836086" lon="34.9208">
				<ele>185</ele>
			</trkpt>
			<trkpt lat="31.836033" lon="34.921003">
				<ele>183</ele>
			</trkpt>
			<trkpt lat="31.83601" lon="34.921214">
				<ele>183</ele>
			</trkpt>
			<trkpt lat="31.836011" lon="34.921468">
				<ele>180</ele>
			</trkpt>
			<trkpt lat="31.836041" lon="34.921677">
				<ele>178</ele>
			</trkpt>
			<trkpt lat="31.836102" lon="34.92183">
				<ele>178</ele>
			</trkpt>
			<trkpt lat="31.836212" lon="34.921937">
				<ele>178</ele>
			</trkpt>
			<trkpt lat="31.83631" lon="34.921987">
				<ele>177</ele>
			</trkpt>
			<trkpt lat="31.836555" lon="34.922041">
				<ele>177</ele>
			</trkpt>
			<trkpt lat="31.837107" lon="34.922214">
				<ele>177</ele>
			</trkpt>
			<trkpt lat="31.837224" lon="34.922311">
				<ele>176</ele>
			</trkpt>
			<trkpt lat="31.837363" lon="34.922411">
				<ele>177</ele>
			</trkpt>
			<trkpt lat="31.837481" lon="34.922521">
				<ele>178</ele>
			</trkpt>
			<trkpt lat="31.83742" lon="34.922623">
				<ele>178</ele>
			</trkpt>
			<trkpt lat="31.837344" lon="34.92283">
				<ele>179</ele>
			</trkpt>
			<trkpt lat="31.837312" lon="34.922894">
				<ele>180</ele>
			</trkpt>
			<trkpt lat="31.837191" lon="34.923008">
				<ele>181</ele>
			</trkpt>
			<trkpt lat="31.837032" lon="34.923043">
				<ele>182</ele>
			</trkpt>
			<trkpt lat="31.836765" lon="34.923148">
				<ele>182</ele>
			</trkpt>
			<trkpt lat="31.836684" lon="34.923224">
				<ele>183</ele>
			</trkpt>
			<trkpt lat="31.836631" lon="34.923305">
				<ele>184</ele>
			</trkpt>
			<trkpt lat="31.836591" lon="34.92341">
				<ele>184</ele>
			</trkpt>
			<trkpt lat="31.83655" lon="34.923769">
				<ele>188</ele>
			</trkpt>
			<trkpt lat="31.836394" lon="34.924178">
				<ele>189</ele>
			</trkpt>
			<trkpt lat="31.83637" lon="34.924308">
				<ele>190</ele>
			</trkpt>
			<trkpt lat="31.836375" lon="34.92448">
				<ele>191</ele>
			</trkpt>
			<trkpt lat="31.836456" lon="34.924807">
				<ele>194</ele>
			</trkpt>
			<trkpt lat="31.836469" lon="34.924917">
				<ele>195</ele>
			</trkpt>
			<trkpt lat="31.836449" lon="34.925027">
				<ele>196</ele>
			</trkpt>
			<trkpt lat="31.836306" lon="34.925453">
				<ele>195</ele>
			</trkpt>
			<trkpt lat="31.836265" lon="34.925636">
				<ele>195</ele>
			</trkpt>
			<trkpt lat="31.836246" lon="34.925821">
				<ele>193</ele>
			</trkpt>
			<trkpt lat="31.83625" lon="34.925935">
				<ele>193</ele>
			</trkpt>
			<trkpt lat="31.836271" lon="34.926037">
				<ele>194</ele>
			</trkpt>
			<trkpt lat="31.836317" lon="34.926161">
				<ele>193</ele>
			</trkpt>
			<trkpt lat="31.836438" lon="34.92638">
				<ele>196</ele>
			</trkpt>
			<trkpt lat="31.836502" lon="34.926551">
				<ele>196</ele>
			</trkpt>
			<trkpt lat="31.836726" lon="34.927342">
				<ele>204</ele>
			</trkpt>
			<trkpt lat="31.836762" lon="34.927514">
				<ele>204</ele>
			</trkpt>
			<trkpt lat="31.836783" lon="34.92773">
				<ele>204</ele>
			</trkpt>
			<trkpt lat="31.836878" lon="34.928063">
				<ele>206</ele>
			</trkpt>
			<trkpt lat="31.83724" lon="34.929085">
				<ele>203</ele>
			</trkpt>
			<trkpt lat="31.83734" lon="34.929297">
				<ele>202</ele>
			</trkpt>
			<trkpt lat="31.837537" lon="34.929592">
				<ele>199</ele>
			</trkpt>
			<trkpt lat="31.837639" lon="34.929709">
				<ele>199</ele>
			</trkpt>
			<trkpt lat="31.837666" lon="34.9297">
				<ele>205</ele>
			</trkpt>
			<trkpt lat="31.837639" lon="34.929709">
				<ele>199</ele>
			</trkpt>
			<trkpt lat="31.837787" lon="34.929877">
				<ele>201</ele>
			</trkpt>
			<trkpt lat="31.837867" lon="34.930019">
				<ele>200</ele>
			</trkpt>
			<trkpt lat="31.837925" lon="34.930179">
				<ele>201</ele>
			</trkpt>
			<trkpt lat="31.838025" lon="34.930365">
				<ele>202</ele>
			</trkpt>
			<trkpt lat="31.838191" lon="34.93061">
				<ele>203</ele>
			</trkpt>
			<trkpt lat="31.838282" lon="34.930709">
				<ele>203</ele>
			</trkpt>
			<trkpt lat="31.83842" lon="34.930823">
				<ele>205</ele>
			</trkpt>
			<trkpt lat="31.838543" lon="34.930961">
				<ele>205</ele>
			</trkpt>
			<trkpt lat="31.838702" lon="34.931251">
				<ele>205</ele>
			</trkpt>
			<trkpt lat="31.838786" lon="34.931467">
				<ele>204</ele>
			</trkpt>
			<trkpt lat="31.839113" lon="34.931967">
				<ele>204</ele>
			</trkpt>
			<trkpt lat="31.839442" lon="34.932356">
				<ele>207</ele>
			</trkpt>
			<trkpt lat="31.839611" lon="34.932511">
				<ele>210</ele>
			</trkpt>
			<trkpt lat="31.839657" lon="34.932575">
				<ele>210</ele>
			</trkpt>
			<trkpt lat="31.8397" lon="34.932548">
				<ele>217.5</ele>
			</trkpt>
			<trkpt lat="31.840054" lon="34.932329">
				<ele>225</ele>
			</trkpt>
			<trkpt lat="31.840363" lon="34.932044">
				<ele>234</ele>
			</trkpt>
			<trkpt lat="31.840855" lon="34.931506">
				<ele>249.5</ele>
			</trkpt>
			<trkpt lat="31.840887" lon="34.93147">
				<ele>253</ele>
			</trkpt>
			<trkpt lat="31.840336" lon="34.930718">
				<ele>247</ele>
			</trkpt>
			<trkpt lat="31.840079" lon="34.930485">
				<ele>243</ele>
			</trkpt>
			<trkpt lat="31.839902" lon="34.930218">
				<ele>244</ele>
			</trkpt>
			<trkpt lat="31.839532" lon="34.929749">
				<ele>244</ele>
			</trkpt>
			<trkpt lat="31.839324" lon="34.929463">
				<ele>244</ele>
			</trkpt>
			<trkpt lat="31.839041" lon="34.928791">
				<ele>242</ele>
			</trkpt>
			<trkpt lat="31.839004" lon="34.928687">
				<ele>241</ele>
			</trkpt>
			<trkpt lat="31.838891" lon="34.928529">
				<ele>239</ele>
			</trkpt>
			<trkpt lat="31.838609" lon="34.928315">
				<ele>236</ele>
			</trkpt>
			<trkpt lat="31.838387" lon="34.928098">
				<ele>233</ele>
			</trkpt>
			<trkpt lat="31.838216" lon="34.92788">
				<ele>233</ele>
			</trkpt>
			<trkpt lat="31.83812" lon="34.927701">
				<ele>232</ele>
			</trkpt>
			<trkpt lat="31.838012" lon="34.927433">
				<ele>232</ele>
			</trkpt>
			<trkpt lat="31.837955" lon="34.927188">
				<ele>231</ele>
			</trkpt>
			<trkpt lat="31.837937" lon="34.926934">
				<ele>231</ele>
			</trkpt>
			<trkpt lat="31.837945" lon="34.926679">
				<ele>230</ele>
			</trkpt>
			<trkpt lat="31.837932" lon="34.926382">
				<ele>227</ele>
			</trkpt>
			<trkpt lat="31.837869" lon="34.925707">
				<ele>219</ele>
			</trkpt>
			<trkpt lat="31.837859" lon="34.925325">
				<ele>214</ele>
			</trkpt>
			<trkpt lat="31.837837" lon="34.925201">
				<ele>212</ele>
			</trkpt>
			<trkpt lat="31.837777" lon="34.925048">
				<ele>209</ele>
			</trkpt>
			<trkpt lat="31.837645" lon="34.924896">
				<ele>207</ele>
			</trkpt>
			<trkpt lat="31.837522" lon="34.924827">
				<ele>207</ele>
			</trkpt>
			<trkpt lat="31.837339" lon="34.924695">
				<ele>205</ele>
			</trkpt>
			<trkpt lat="31.837313" lon="34.92463">
				<ele>203</ele>
			</trkpt>
			<trkpt lat="31.837291" lon="34.924495">
				<ele>202</ele>
			</trkpt>
			<trkpt lat="31.83732" lon="34.924286">
				<ele>200</ele>
			</trkpt>
			<trkpt lat="31.837434" lon="34.923928">
				<ele>197</ele>
			</trkpt>
			<trkpt lat="31.837505" lon="34.92378">
				<ele>195</ele>
			</trkpt>
			<trkpt lat="31.83767" lon="34.923556">
				<ele>193</ele>
			</trkpt>
			<trkpt lat="31.837705" lon="34.923482">
				<ele>193</ele>
			</trkpt>
			<trkpt lat="31.837717" lon="34.9234">
				<ele>192</ele>
			</trkpt>
			<trkpt lat="31.837651" lon="34.923252">
				<ele>190</ele>
			</trkpt>
			<trkpt lat="31.837633" lon="34.923213">
				<ele>188</ele>
			</trkpt>
			<trkpt lat="31.837518" lon="34.92305">
				<ele>184</ele>
			</trkpt>
			<trkpt lat="31.837441" lon="34.922961">
				<ele>182</ele>
			</trkpt>
			<trkpt lat="31.837312" lon="34.922894">
				<ele>180</ele>
			</trkpt>
			<trkpt lat="31.837344" lon="34.92283">
				<ele>179</ele>
			</trkpt>
			<trkpt lat="31.83742" lon="34.922623">
				<ele>178</ele>
			</trkpt>
			<trkpt lat="31.837481" lon="34.922521">
				<ele>178</ele>
			</trkpt>
			<trkpt lat="31.837376" lon="34.92242">
				<ele>178</ele>
			</trkpt>
			<trkpt lat="31.837224" lon="34.922311">
				<ele>176</ele>
			</trkpt>
			<trkpt lat="31.837107" lon="34.922214">
				<ele>177</ele>
			</trkpt>
			<trkpt lat="31.837085" lon="34.922208">
				<ele>178</ele>
			</trkpt>
			<trkpt lat="31.837119" lon="34.922">
				<ele>180</ele>
			</trkpt>
			<trkpt lat="31.837212" lon="34.92187">
				<ele>182</ele>
			</trkpt>
			<trkpt lat="31.83749" lon="34.921791">
				<ele>188</ele>
			</trkpt>
			<trkpt lat="31.837591" lon="34.921746">
				<ele>191</ele>
			</trkpt>
			<trkpt lat="31.837668" lon="34.921659">
				<ele>194</ele>
			</trkpt>
			<trkpt lat="31.837687" lon="34.921536">
				<ele>195</ele>
			</trkpt>
			<trkpt lat="31.83767" lon="34.921254">
				<ele>198</ele>
			</trkpt>
			<trkpt lat="31.837671" lon="34.920895">
				<ele>197</ele>
			</trkpt>
			<trkpt lat="31.837694" lon="34.920791">
				<ele>196.5</ele>
			</trkpt>
			<trkpt lat="31.837735" lon="34.920604">
				<ele>196</ele>
			</trkpt>
			<trkpt lat="31.837749" lon="34.920334">
				<ele>195</ele>
			</trkpt>
			<trkpt lat="31.837729" lon="34.919926">
				<ele>197</ele>
			</trkpt>
			<trkpt lat="31.837614" lon="34.919456">
				<ele>196</ele>
			</trkpt>
			<trkpt lat="31.837402" lon="34.918188">
				<ele>190</ele>
			</trkpt>
			<trkpt lat="31.83728" lon="34.91775">
				<ele>189</ele>
			</trkpt>
			<trkpt lat="31.837229" lon="34.917636">
				<ele>188</ele>
			</trkpt>
			<trkpt lat="31.837081" lon="34.91743">
				<ele>188</ele>
			</trkpt>
			<trkpt lat="31.836993" lon="34.917266">
				<ele>188</ele>
			</trkpt>
			<trkpt lat="31.836726" lon="34.916945">
				<ele>185</ele>
			</trkpt>
			<trkpt lat="31.836659" lon="34.916823">
				<ele>185</ele>
			</trkpt>
			<trkpt lat="31.83659" lon="34.916733">
				<ele>185</ele>
			</trkpt>
			<trkpt lat="31.836357" lon="34.916605">
				<ele>184</ele>
			</trkpt>
			<trkpt lat="31.8362" lon="34.91657">
				<ele>183</ele>
			</trkpt>
			<trkpt lat="31.836134" lon="34.916547">
				<ele>183</ele>
			</trkpt>
			<trkpt lat="31.835927" lon="34.916272">
				<ele>182</ele>
			</trkpt>
			<trkpt lat="31.835689" lon="34.916153">
				<ele>182</ele>
			</trkpt>
			<trkpt lat="31.835559" lon="34.916109">
				<ele>182</ele>
			</trkpt>
			<trkpt lat="31.835487" lon="34.916105">
				<ele>182</ele>
			</trkpt>
			<trkpt lat="31.835352" lon="34.916046">
				<ele>180</ele>
			</trkpt>
			<trkpt lat="31.835271" lon="34.915966">
				<ele>180</ele>
			</trkpt>
			<trkpt lat="31.835104" lon="34.91559">
				<ele>180</ele>
			</trkpt>
			<trkpt lat="31.83494" lon="34.91512">
				<ele>180</ele>
			</trkpt>
			<trkpt lat="31.834811" lon="34.914864">
				<ele>180</ele>
			</trkpt>
			<trkpt lat="31.834646" lon="34.914442">
				<ele>182</ele>
			</trkpt>
			<trkpt lat="31.834598" lon="34.914237">
				<ele>181</ele>
			</trkpt>
			<trkpt lat="31.834575" lon="34.914027">
				<ele>184</ele>
			</trkpt>
			<trkpt lat="31.834616" lon="34.912755">
				<ele>186</ele>
			</trkpt>
			<trkpt lat="31.834665" lon="34.912206">
				<ele>184</ele>
			</trkpt>
			<trkpt lat="31.834697" lon="34.912041">
				<ele>183</ele>
			</trkpt>
			<trkpt lat="31.83481" lon="34.911683">
				<ele>181</ele>
			</trkpt>
			<trkpt lat="31.834818" lon="34.911556">
				<ele>180</ele>
			</trkpt>
			<trkpt lat="31.834771" lon="34.911398">
				<ele>179</ele>
			</trkpt>
			<trkpt lat="31.834546" lon="34.910963">
				<ele>175</ele>
			</trkpt>
			<trkpt lat="31.834447" lon="34.910736">
				<ele>173</ele>
			</trkpt>
			<trkpt lat="31.834445" lon="34.910409">
				<ele>170</ele>
			</trkpt>
			<trkpt lat="31.83421" lon="34.91036">
				<ele>169.5</ele>
			</trkpt>
		</trkseg>
	</trk>
</gpx>