<?xml version="1.0" encoding="utf-8"?>
<gpx version="1.1" creator="Mapeak_single_track" xmlns="http://www.topografix.com/GPX/1/1">
	<metadata>
		<bounds minlat="31.870074" minlon="35.012099" maxlat="31.879799" maxlon="35.024909" />
	</metadata>
	<trk>
		<name>מסלול</name>
		<desc />
		<extensions>
			<Color xmlns="">#0000FF</Color>
			<Opacity xmlns="">0.4</Opacity>
			<Weight xmlns="">9</Weight>
		</extensions>
		<trkseg>
			<trkpt lat="31.879519985030313" lon="35.01831469916172">
				<ele>261.97198039264185</ele>
			</trkpt>
			<trkpt lat="31.879527" lon="35.018362">
				<ele>260.7</ele>
			</trkpt>
			<trkpt lat="31.879532" lon="35.018307">
				<ele>260.8915064848182</ele>
			</trkpt>
			<trkpt lat="31.879551" lon="35.018257">
				<ele>261.0811566532365</ele>
			</trkpt>
			<trkpt lat="31.879439" lon="35.018131">
				<ele>261.71267729797165</ele>
			</trkpt>
			<trkpt lat="31.879377" lon="35.018032">
				<ele>262.41557048875717</ele>
			</trkpt>
			<trkpt lat="31.879365" lon="35.017982">
				<ele>262.74264152784957</ele>
			</trkpt>
			<trkpt lat="31.879357" lon="35.017956">
				<ele>262.9167202827631</ele>
			</trkpt>
			<trkpt lat="31.879341" lon="35.017943">
				<ele>263.06081904792677</ele>
			</trkpt>
			<trkpt lat="31.879312" lon="35.017939">
				<ele>263.2772654591325</ele>
			</trkpt>
			<trkpt lat="31.879281" lon="35.017954">
				<ele>263.5257105657855</ele>
			</trkpt>
			<trkpt lat="31.879249" lon="35.017953">
				<ele>263.76300991558605</ele>
			</trkpt>
			<trkpt lat="31.879225" lon="35.017929">
				<ele>264.00623288446576</ele>
			</trkpt>
			<trkpt lat="31.879134" lon="35.017883">
				<ele>264.77704181581504</ele>
			</trkpt>
			<trkpt lat="31.87895" lon="35.017808">
				<ele>266.0495608552025</ele>
			</trkpt>
			<trkpt lat="31.878907" lon="35.017753">
				<ele>266.2378048274276</ele>
			</trkpt>
			<trkpt lat="31.87911" lon="35.017399">
				<ele>267.08335441311743</ele>
			</trkpt>
			<trkpt lat="31.879215" lon="35.017267">
				<ele>267.63677410385725</ele>
			</trkpt>
			<trkpt lat="31.879297" lon="35.016979">
				<ele>268.8212376781906</ele>
			</trkpt>
			<trkpt lat="31.87934" lon="35.016696">
				<ele>269.7378302982567</ele>
			</trkpt>
			<trkpt lat="31.879519" lon="35.016164">
				<ele>270.6991912257481</ele>
			</trkpt>
			<trkpt lat="31.879533" lon="35.015877">
				<ele>271.2416645799107</ele>
			</trkpt>
			<trkpt lat="31.879538" lon="35.015822">
				<ele>271.44605507673964</ele>
			</trkpt>
			<trkpt lat="31.879568" lon="35.015759">
				<ele>271.87799484892685</ele>
			</trkpt>
			<trkpt lat="31.879584" lon="35.015687">
				<ele>272.3230599846762</ele>
			</trkpt>
			<trkpt lat="31.879579" lon="35.015622">
				<ele>272.71335664052407</ele>
			</trkpt>
			<trkpt lat="31.879603" lon="35.015582">
				<ele>273.0062467563244</ele>
			</trkpt>
			<trkpt lat="31.879621" lon="35.015535">
				<ele>273.34472442410424</ele>
			</trkpt>
			<trkpt lat="31.879626" lon="35.015473">
				<ele>273.81516602095826</ele>
			</trkpt>
			<trkpt lat="31.879652" lon="35.015413">
				<ele>274.32399542158726</ele>
			</trkpt>
			<trkpt lat="31.879659" lon="35.015381">
				<ele>274.5736079460025</ele>
			</trkpt>
			<trkpt lat="31.879607" lon="35.015319">
				<ele>275.2318698951507</ele>
			</trkpt>
			<trkpt lat="31.879579" lon="35.015254">
				<ele>275.69881605581963</ele>
			</trkpt>
			<trkpt lat="31.879537" lon="35.015221">
				<ele>275.9420998362081</ele>
			</trkpt>
			<trkpt lat="31.879554" lon="35.015148">
				<ele>276.2518176275456</ele>
			</trkpt>
			<trkpt lat="31.879586" lon="35.015072">
				<ele>276.59891027382605</ele>
			</trkpt>
			<trkpt lat="31.879626" lon="35.014933">
				<ele>277.08425712879205</ele>
			</trkpt>
			<trkpt lat="31.879628" lon="35.014835">
				<ele>277.331085148711</ele>
			</trkpt>
			<trkpt lat="31.879652" lon="35.014705">
				<ele>277.66606214132247</ele>
			</trkpt>
			<trkpt lat="31.879678" lon="35.014653">
				<ele>277.6114956414563</ele>
			</trkpt>
			<trkpt lat="31.879691" lon="35.014572">
				<ele>277.4558235872943</ele>
			</trkpt>
			<trkpt lat="31.879688" lon="35.014508">
				<ele>277.33477920789306</ele>
			</trkpt>
			<trkpt lat="31.87967" lon="35.014447">
				<ele>277.212827101665</ele>
			</trkpt>
			<trkpt lat="31.879676" lon="35.014398">
				<ele>277.11933624994913</ele>
			</trkpt>
			<trkpt lat="31.879673" lon="35.014304">
				<ele>276.80977822662663</ele>
			</trkpt>
			<trkpt lat="31.87966" lon="35.01423">
				<ele>276.5481541163951</ele>
			</trkpt>
			<trkpt lat="31.87969" lon="35.014167">
				<ele>276.29808397391514</ele>
			</trkpt>
			<trkpt lat="31.879719" lon="35.014125">
				<ele>276.11066958263643</ele>
			</trkpt>
			<trkpt lat="31.879738" lon="35.014066">
				<ele>275.8530099570246</ele>
			</trkpt>
			<trkpt lat="31.879765" lon="35.014023">
				<ele>275.60053022884557</ele>
			</trkpt>
			<trkpt lat="31.879799" lon="35.013943">
				<ele>275.17817811577424</ele>
			</trkpt>
			<trkpt lat="31.879762" lon="35.013875">
				<ele>274.7968903467337</ele>
			</trkpt>
			<trkpt lat="31.879728" lon="35.013843">
				<ele>274.5549055731958</ele>
			</trkpt>
			<trkpt lat="31.879712" lon="35.013811">
				<ele>274.46788960842224</ele>
			</trkpt>
			<trkpt lat="31.879718" lon="35.013786">
				<ele>274.43518261761653</ele>
			</trkpt>
			<trkpt lat="31.879712" lon="35.013811">
				<ele>274.24718145862596</ele>
			</trkpt>
			<trkpt lat="31.879728" lon="35.013843">
				<ele>274.4575649085607</ele>
			</trkpt>
			<trkpt lat="31.879762" lon="35.013875">
				<ele>274.74794663680615</ele>
			</trkpt>
			<trkpt lat="31.879799" lon="35.013943">
				<ele>275.2054919596548</ele>
			</trkpt>
			<trkpt lat="31.879765" lon="35.014023">
				<ele>275.7123144953404</ele>
			</trkpt>
			<trkpt lat="31.879738" lon="35.014066">
				<ele>275.9576450845776</ele>
			</trkpt>
			<trkpt lat="31.879719" lon="35.014125">
				<ele>276.13638695070176</ele>
			</trkpt>
			<trkpt lat="31.87969" lon="35.014167">
				<ele>276.28972599811163</ele>
			</trkpt>
			<trkpt lat="31.87966" lon="35.01423">
				<ele>276.49432884195886</ele>
			</trkpt>
			<trkpt lat="31.879673" lon="35.014304">
				<ele>276.7083849321483</ele>
			</trkpt>
			<trkpt lat="31.879676" lon="35.014398">
				<ele>276.97484348528656</ele>
			</trkpt>
			<trkpt lat="31.87967" lon="35.014447">
				<ele>277.11507976286043</ele>
			</trkpt>
			<trkpt lat="31.879688" lon="35.014508">
				<ele>277.2980079222025</ele>
			</trkpt>
			<trkpt lat="31.879691" lon="35.014572">
				<ele>277.4795744913043</ele>
			</trkpt>
			<trkpt lat="31.879678" lon="35.014653">
				<ele>277.6927319041403</ele>
			</trkpt>
			<trkpt lat="31.879652" lon="35.014705">
				<ele>277.59776711034715</ele>
			</trkpt>
			<trkpt lat="31.879628" lon="35.014835">
				<ele>277.388406489965</ele>
			</trkpt>
			<trkpt lat="31.879626" lon="35.014933">
				<ele>277.23413897751567</ele>
			</trkpt>
			<trkpt lat="31.879586" lon="35.015072">
				<ele>276.64888868731657</ele>
			</trkpt>
			<trkpt lat="31.879554" lon="35.015148">
				<ele>276.2750966067069</ele>
			</trkpt>
			<trkpt lat="31.879537" lon="35.015221">
				<ele>275.9415543698819</ele>
			</trkpt>
			<trkpt lat="31.879579" lon="35.015254">
				<ele>275.62793778934343</ele>
			</trkpt>
			<trkpt lat="31.879607" lon="35.015319">
				<ele>275.1691380007081</ele>
			</trkpt>
			<trkpt lat="31.879659" lon="35.015381">
				<ele>274.6205863764179</ele>
			</trkpt>
			<trkpt lat="31.879652" lon="35.015413">
				<ele>274.41257593940526</ele>
			</trkpt>
			<trkpt lat="31.879626" lon="35.015473">
				<ele>273.9885514388811</ele>
			</trkpt>
			<trkpt lat="31.879621" lon="35.015535">
				<ele>273.56599429106143</ele>
			</trkpt>
			<trkpt lat="31.879603" lon="35.015582">
				<ele>273.1927566510561</ele>
			</trkpt>
			<trkpt lat="31.879579" lon="35.015622">
				<ele>272.83820545824506</ele>
			</trkpt>
			<trkpt lat="31.879584" lon="35.015687">
				<ele>272.3657410853766</ele>
			</trkpt>
			<trkpt lat="31.879568" lon="35.015759">
				<ele>271.82697802631156</ele>
			</trkpt>
			<trkpt lat="31.879538" lon="35.015822">
				<ele>271.43186210964967</ele>
			</trkpt>
			<trkpt lat="31.879533" lon="35.015877">
				<ele>271.2925846751139</ele>
			</trkpt>
			<trkpt lat="31.879519" lon="35.016164">
				<ele>270.6671869216823</ele>
			</trkpt>
			<trkpt lat="31.87934" lon="35.016696">
				<ele>269.7278855760978</ele>
			</trkpt>
			<trkpt lat="31.879297" lon="35.016979">
				<ele>268.91699171724764</ele>
			</trkpt>
			<trkpt lat="31.879215" lon="35.017267">
				<ele>267.64351127350403</ele>
			</trkpt>
			<trkpt lat="31.87911" lon="35.017399">
				<ele>267.12326575919326</ele>
			</trkpt>
			<trkpt lat="31.878907" lon="35.017753">
				<ele>266.47806377349775</ele>
			</trkpt>
			<trkpt lat="31.878805" lon="35.017681">
				<ele>266.14720734364346</ele>
			</trkpt>
			<trkpt lat="31.878751" lon="35.017582">
				<ele>265.628729700033</ele>
			</trkpt>
			<trkpt lat="31.878695" lon="35.017488">
				<ele>265.12275908303855</ele>
			</trkpt>
			<trkpt lat="31.878534" lon="35.017287">
				<ele>262.9668268989081</ele>
			</trkpt>
			<trkpt lat="31.878478" lon="35.017093">
				<ele>261.16196460202843</ele>
			</trkpt>
			<trkpt lat="31.878282" lon="35.016807">
				<ele>257.8657546573724</ele>
			</trkpt>
			<trkpt lat="31.878105" lon="35.016465">
				<ele>255.09591436268695</ele>
			</trkpt>
			<trkpt lat="31.877778" lon="35.01617">
				<ele>253.29499305663867</ele>
			</trkpt>
			<trkpt lat="31.87738" lon="35.015869">
				<ele>249.05207211316258</ele>
			</trkpt>
			<trkpt lat="31.87707" lon="35.015681">
				<ele>246.0166337605246</ele>
			</trkpt>
			<trkpt lat="31.87676" lon="35.015446">
				<ele>245.2</ele>
			</trkpt>
			<trkpt lat="31.876606" lon="35.015352">
				<ele>244.90171768735263</ele>
			</trkpt>
			<trkpt lat="31.876689" lon="35.014788">
				<ele>242.85444549249416</ele>
			</trkpt>
			<trkpt lat="31.876611" lon="35.014768">
				<ele>242.79526932382979</ele>
			</trkpt>
			<trkpt lat="31.876311" lon="35.014687">
				<ele>243.89602035796236</ele>
			</trkpt>
			<trkpt lat="31.876107" lon="35.014701">
				<ele>245.3015419481073</ele>
			</trkpt>
			<trkpt lat="31.876046" lon="35.014732">
				<ele>245.7694210596883</ele>
			</trkpt>
			<trkpt lat="31.875998" lon="35.014757">
				<ele>246.51672194990874</ele>
			</trkpt>
			<trkpt lat="31.875771" lon="35.014589">
				<ele>247</ele>
			</trkpt>
			<trkpt lat="31.875495" lon="35.014234">
				<ele>248.6174111680113</ele>
			</trkpt>
			<trkpt lat="31.875407" lon="35.014244">
				<ele>249.4020003669513</ele>
			</trkpt>
			<trkpt lat="31.875011" lon="35.014097">
				<ele>254.53760264033414</ele>
			</trkpt>
			<trkpt lat="31.874866" lon="35.014137">
				<ele>256.04875019153</ele>
			</trkpt>
			<trkpt lat="31.874817" lon="35.01415">
				<ele>256.41861707646274</ele>
			</trkpt>
			<trkpt lat="31.874812" lon="35.014035">
				<ele>256.45486156719625</ele>
			</trkpt>
			<trkpt lat="31.875022" lon="35.013875">
				<ele>256.02430542296054</ele>
			</trkpt>
			<trkpt lat="31.875081" lon="35.013782">
				<ele>255.65891599761744</ele>
			</trkpt>
			<trkpt lat="31.875064" lon="35.01369">
				<ele>255.43128202468236</ele>
			</trkpt>
			<trkpt lat="31.875197" lon="35.013418">
				<ele>255.3760644796793</ele>
			</trkpt>
			<trkpt lat="31.875172" lon="35.013263">
				<ele>256.8658451064077</ele>
			</trkpt>
			<trkpt lat="31.875138" lon="35.013224">
				<ele>257.3936237005228</ele>
			</trkpt>
			<trkpt lat="31.875128" lon="35.013171">
				<ele>257.9062900312634</ele>
			</trkpt>
			<trkpt lat="31.875107" lon="35.013133">
				<ele>258.4570160931604</ele>
			</trkpt>
			<trkpt lat="31.875082" lon="35.013063">
				<ele>259.4370049816785</ele>
			</trkpt>
			<trkpt lat="31.875021" lon="35.013017">
				<ele>260.5377851898461</ele>
			</trkpt>
			<trkpt lat="31.874973" lon="35.01305">
				<ele>261.3824403926088</ele>
			</trkpt>
			<trkpt lat="31.874944" lon="35.013028">
				<ele>261.90667693660055</ele>
			</trkpt>
			<trkpt lat="31.874935" lon="35.012993">
				<ele>262.0184567412895</ele>
			</trkpt>
			<trkpt lat="31.874917" lon="35.012966">
				<ele>261.8888040235045</ele>
			</trkpt>
			<trkpt lat="31.874902" lon="35.012911">
				<ele>261.6706140333798</ele>
			</trkpt>
			<trkpt lat="31.874874" lon="35.012832">
				<ele>261.3472780674629</ele>
			</trkpt>
			<trkpt lat="31.874817" lon="35.012749">
				<ele>260.9440961180276</ele>
			</trkpt>
			<trkpt lat="31.874771" lon="35.012729">
				<ele>261.074002872045</ele>
			</trkpt>
			<trkpt lat="31.874705" lon="35.012721">
				<ele>261.36910854283707</ele>
			</trkpt>
			<trkpt lat="31.874665" lon="35.012701">
				<ele>261.56239384289586</ele>
			</trkpt>
			<trkpt lat="31.874637" lon="35.012663">
				<ele>261.7524215323733</ele>
			</trkpt>
			<trkpt lat="31.874648" lon="35.012623">
				<ele>261.9112296832107</ele>
			</trkpt>
			<trkpt lat="31.874649" lon="35.012556">
				<ele>262.05711065117737</ele>
			</trkpt>
			<trkpt lat="31.874636" lon="35.012412">
				<ele>261.69246645186865</ele>
			</trkpt>
			<trkpt lat="31.874646" lon="35.012313">
				<ele>261.4414209613282</ele>
			</trkpt>
			<trkpt lat="31.874638" lon="35.012309">
				<ele>261.41564958615857</ele>
			</trkpt>
			<trkpt lat="31.874646" lon="35.012313">
				<ele>261.2</ele>
			</trkpt>
			<trkpt lat="31.874455" lon="35.012221">
				<ele>264.64194294208585</ele>
			</trkpt>
			<trkpt lat="31.874428" lon="35.01216">
				<ele>265.6162747379198</ele>
			</trkpt>
			<trkpt lat="31.874351" lon="35.012156">
				<ele>267.3291408627149</ele>
			</trkpt>
			<trkpt lat="31.873952" lon="35.012099">
				<ele>274.8272313971633</ele>
			</trkpt>
			<trkpt lat="31.873904" lon="35.012139">
				<ele>275.6990522931345</ele>
			</trkpt>
			<trkpt lat="31.873806" lon="35.012148">
				<ele>276.47820562300956</ele>
			</trkpt>
			<trkpt lat="31.873664" lon="35.012367">
				<ele>277.86191688238415</ele>
			</trkpt>
			<trkpt lat="31.873585" lon="35.012489">
				<ele>277.66538072671204</ele>
			</trkpt>
			<trkpt lat="31.873588" lon="35.012608">
				<ele>277.3281227462294</ele>
			</trkpt>
			<trkpt lat="31.873667" lon="35.01277">
				<ele>276.13044604071894</ele>
			</trkpt>
			<trkpt lat="31.873653" lon="35.013085">
				<ele>274.1422468727202</ele>
			</trkpt>
			<trkpt lat="31.873584" lon="35.013255">
				<ele>273.23053956229626</ele>
			</trkpt>
			<trkpt lat="31.873588" lon="35.013475">
				<ele>271.70674520284604</ele>
			</trkpt>
			<trkpt lat="31.873535" lon="35.013588">
				<ele>270.9564164611629</ele>
			</trkpt>
			<trkpt lat="31.873534" lon="35.013694">
				<ele>270.5893818046824</ele>
			</trkpt>
			<trkpt lat="31.873582" lon="35.013804">
				<ele>270.1611819498123</ele>
			</trkpt>
			<trkpt lat="31.873509" lon="35.013955">
				<ele>270.40038135904916</ele>
			</trkpt>
			<trkpt lat="31.873351" lon="35.014111">
				<ele>271.3621740012545</ele>
			</trkpt>
			<trkpt lat="31.873303" lon="35.014217">
				<ele>272.19403484186586</ele>
			</trkpt>
			<trkpt lat="31.873289" lon="35.014354">
				<ele>273.14957270627036</ele>
			</trkpt>
			<trkpt lat="31.873585" lon="35.014426">
				<ele>271.0371167149326</ele>
			</trkpt>
			<trkpt lat="31.873712" lon="35.014419">
				<ele>269.7647671908678</ele>
			</trkpt>
			<trkpt lat="31.873816" lon="35.014571">
				<ele>268.4901944195108</ele>
			</trkpt>
			<trkpt lat="31.87391" lon="35.014784">
				<ele>268.0368549795331</ele>
			</trkpt>
			<trkpt lat="31.874055" lon="35.014976">
				<ele>268.07473210140716</ele>
			</trkpt>
			<trkpt lat="31.874283" lon="35.014933">
				<ele>267.97936555056833</ele>
			</trkpt>
			<trkpt lat="31.874385" lon="35.014951">
				<ele>267.90290865734215</ele>
			</trkpt>
			<trkpt lat="31.874441" lon="35.015103">
				<ele>268.55906702407935</ele>
			</trkpt>
			<trkpt lat="31.87443" lon="35.015166">
				<ele>268.8222467332925</ele>
			</trkpt>
			<trkpt lat="31.874407" lon="35.015296">
				<ele>270.87188881382036</ele>
			</trkpt>
			<trkpt lat="31.874336" lon="35.015379">
				<ele>272.35515716476414</ele>
			</trkpt>
			<trkpt lat="31.874161" lon="35.015778">
				<ele>276.98435300294597</ele>
			</trkpt>
			<trkpt lat="31.874096" lon="35.015839">
				<ele>277.56969133284474</ele>
			</trkpt>
			<trkpt lat="31.873885" lon="35.015829">
				<ele>278.8223747937862</ele>
			</trkpt>
			<trkpt lat="31.873806" lon="35.015788">
				<ele>279.1743644874169</ele>
			</trkpt>
			<trkpt lat="31.873728" lon="35.015778">
				<ele>279.4942612266764</ele>
			</trkpt>
			<trkpt lat="31.873649" lon="35.015767">
				<ele>279.4230880547007</ele>
			</trkpt>
			<trkpt lat="31.873379" lon="35.015355">
				<ele>278.06708502363807</ele>
			</trkpt>
			<trkpt lat="31.873142" lon="35.014749">
				<ele>275.5440187404629</ele>
			</trkpt>
			<trkpt lat="31.873289" lon="35.014354">
				<ele>273.50961145773806</ele>
			</trkpt>
			<trkpt lat="31.873133" lon="35.014298">
				<ele>272.9051273124435</ele>
			</trkpt>
			<trkpt lat="31.873034" lon="35.014034">
				<ele>271.0934814025132</ele>
			</trkpt>
			<trkpt lat="31.873035" lon="35.013821">
				<ele>269.5230831293994</ele>
			</trkpt>
			<trkpt lat="31.872932" lon="35.01355">
				<ele>267.5851335052004</ele>
			</trkpt>
			<trkpt lat="31.872911" lon="35.0133">
				<ele>266.2514871614383</ele>
			</trkpt>
			<trkpt lat="31.872809" lon="35.013339">
				<ele>265.65524716208057</ele>
			</trkpt>
			<trkpt lat="31.872684" lon="35.013493">
				<ele>264.2456828475612</ele>
			</trkpt>
			<trkpt lat="31.872618" lon="35.013523">
				<ele>263.56390664157897</ele>
			</trkpt>
			<trkpt lat="31.872418" lon="35.013439">
				<ele>261.267815048418</ele>
			</trkpt>
			<trkpt lat="31.872142" lon="35.013524">
				<ele>257.7420158966942</ele>
			</trkpt>
			<trkpt lat="31.871865" lon="35.013442">
				<ele>254.62234471865904</ele>
			</trkpt>
			<trkpt lat="31.871659" lon="35.013521">
				<ele>253.16463302748818</ele>
			</trkpt>
			<trkpt lat="31.871479" lon="35.013508">
				<ele>252.49128245900664</ele>
			</trkpt>
			<trkpt lat="31.871231" lon="35.013566">
				<ele>250.33580086395543</ele>
			</trkpt>
			<trkpt lat="31.871014" lon="35.013576">
				<ele>247.3656491150923</ele>
			</trkpt>
			<trkpt lat="31.870501" lon="35.013781">
				<ele>240.06161274263582</ele>
			</trkpt>
			<trkpt lat="31.870393" lon="35.013798">
				<ele>238.75847513825744</ele>
			</trkpt>
			<trkpt lat="31.870246" lon="35.013888">
				<ele>237.03898476989988</ele>
			</trkpt>
			<trkpt lat="31.870074" lon="35.013931">
				<ele>236.35764811833226</ele>
			</trkpt>
			<trkpt lat="31.8701" lon="35.014096">
				<ele>236.3048240279669</ele>
			</trkpt>
			<trkpt lat="31.870096" lon="35.014242">
				<ele>237.0408221504084</ele>
			</trkpt>
			<trkpt lat="31.870116" lon="35.014352">
				<ele>237.67819690706915</ele>
			</trkpt>
			<trkpt lat="31.870148" lon="35.014432">
				<ele>238.1264108093658</ele>
			</trkpt>
			<trkpt lat="31.870317" lon="35.015286">
				<ele>240.20629338328587</ele>
			</trkpt>
			<trkpt lat="31.870324" lon="35.015602">
				<ele>242.33819501107797</ele>
			</trkpt>
			<trkpt lat="31.870452" lon="35.016395">
				<ele>244.92796283316164</ele>
			</trkpt>
			<trkpt lat="31.870627" lon="35.017091">
				<ele>245.5122122928993</ele>
			</trkpt>
			<trkpt lat="31.870681" lon="35.017308">
				<ele>247.27624913052574</ele>
			</trkpt>
			<trkpt lat="31.870682" lon="35.018046">
				<ele>252.42351423061098</ele>
			</trkpt>
			<trkpt lat="31.870577" lon="35.018792">
				<ele>259.18374989435466</ele>
			</trkpt>
			<trkpt lat="31.870576" lon="35.019036">
				<ele>260.7966588211308</ele>
			</trkpt>
			<trkpt lat="31.870437" lon="35.019807">
				<ele>267.306706361944</ele>
			</trkpt>
			<trkpt lat="31.870394" lon="35.020114">
				<ele>269.20247031088593</ele>
			</trkpt>
			<trkpt lat="31.870395" lon="35.020229">
				<ele>269.7454810135814</ele>
			</trkpt>
			<trkpt lat="31.870445" lon="35.020508">
				<ele>270.7750886382028</ele>
			</trkpt>
			<trkpt lat="31.870491" lon="35.020628">
				<ele>271.14807013840533</ele>
			</trkpt>
			<trkpt lat="31.870544" lon="35.020722">
				<ele>271.2297460211461</ele>
			</trkpt>
			<trkpt lat="31.870411" lon="35.020816">
				<ele>271.2872405451935</ele>
			</trkpt>
			<trkpt lat="31.870544" lon="35.020722">
				<ele>271.52997809618955</ele>
			</trkpt>
			<trkpt lat="31.870675" lon="35.020895">
				<ele>271.88272046318156</ele>
			</trkpt>
			<trkpt lat="31.87082" lon="35.02104">
				<ele>272.3154095041807</ele>
			</trkpt>
			<trkpt lat="31.871049" lon="35.021184">
				<ele>273.85498383169505</ele>
			</trkpt>
			<trkpt lat="31.871401" lon="35.021289">
				<ele>278.6028318440584</ele>
			</trkpt>
			<trkpt lat="31.871505" lon="35.021335">
				<ele>280.29109981882385</ele>
			</trkpt>
			<trkpt lat="31.871611" lon="35.021399">
				<ele>281.82765396408786</ele>
			</trkpt>
			<trkpt lat="31.871744" lon="35.021513">
				<ele>283.3519910148425</ele>
			</trkpt>
			<trkpt lat="31.871827" lon="35.021622">
				<ele>284.28659001750395</ele>
			</trkpt>
			<trkpt lat="31.87191" lon="35.02181">
				<ele>285.3537129807605</ele>
			</trkpt>
			<trkpt lat="31.871959" lon="35.02208">
				<ele>286.044341727205</ele>
			</trkpt>
			<trkpt lat="31.871961" lon="35.02225">
				<ele>286.9506869403691</ele>
			</trkpt>
			<trkpt lat="31.87198" lon="35.02237">
				<ele>287.87283708726596</ele>
			</trkpt>
			<trkpt lat="31.87203" lon="35.022533">
				<ele>289.0608068516995</ele>
			</trkpt>
			<trkpt lat="31.872065" lon="35.022659">
				<ele>289.8536455057882</ele>
			</trkpt>
			<trkpt lat="31.872059" lon="35.022801">
				<ele>290.33899760464806</ele>
			</trkpt>
			<trkpt lat="31.872063" lon="35.022977">
				<ele>289.5077161974818</ele>
			</trkpt>
			<trkpt lat="31.872081" lon="35.023089">
				<ele>288.99390442782067</ele>
			</trkpt>
			<trkpt lat="31.872097" lon="35.023126">
				<ele>288.954696444091</ele>
			</trkpt>
			<trkpt lat="31.872112" lon="35.023163">
				<ele>288.91598034651815</ele>
			</trkpt>
			<trkpt lat="31.872159" lon="35.023254">
				<ele>288.8154047497313</ele>
			</trkpt>
			<trkpt lat="31.872192" lon="35.02337">
				<ele>288.6997667423059</ele>
			</trkpt>
			<trkpt lat="31.872237" lon="35.023704">
				<ele>288.0286582245112</ele>
			</trkpt>
			<trkpt lat="31.872299" lon="35.024083">
				<ele>287.2797510599828</ele>
			</trkpt>
			<trkpt lat="31.872352" lon="35.024386">
				<ele>288.1774584874925</ele>
			</trkpt>
			<trkpt lat="31.872412" lon="35.024621">
				<ele>288.6663057634633</ele>
			</trkpt>
			<trkpt lat="31.872483" lon="35.024794">
				<ele>287.88006686152966</ele>
			</trkpt>
			<trkpt lat="31.872525" lon="35.024875">
				<ele>287.4917202430895</ele>
			</trkpt>
			<trkpt lat="31.872543" lon="35.024909">
				<ele>287.2</ele>
			</trkpt>
			<trkpt lat="31.872592" lon="35.02487">
				<ele>286.9150216214396</ele>
			</trkpt>
			<trkpt lat="31.873057" lon="35.024481">
				<ele>282.3664947205802</ele>
			</trkpt>
			<trkpt lat="31.873107" lon="35.02442">
				<ele>281.61930158329386</ele>
			</trkpt>
			<trkpt lat="31.873218" lon="35.024253">
				<ele>280.33933987817073</ele>
			</trkpt>
			<trkpt lat="31.873249" lon="35.024131">
				<ele>280.0988406592805</ele>
			</trkpt>
			<trkpt lat="31.873257" lon="35.023919">
				<ele>279.73172300648235</ele>
			</trkpt>
			<trkpt lat="31.873284" lon="35.023841">
				<ele>279.59915926641366</ele>
			</trkpt>
			<trkpt lat="31.87333" lon="35.023776">
				<ele>279.4659965799095</ele>
			</trkpt>
			<trkpt lat="31.873497" lon="35.023616">
				<ele>277.5352320006176</ele>
			</trkpt>
			<trkpt lat="31.873795" lon="35.02347">
				<ele>274.1855286446363</ele>
			</trkpt>
			<trkpt lat="31.873953" lon="35.023295">
				<ele>273.4002293097877</ele>
			</trkpt>
			<trkpt lat="31.874021" lon="35.023195">
				<ele>273.102671847262</ele>
			</trkpt>
			<trkpt lat="31.874112" lon="35.023012">
				<ele>272.168174875527</ele>
			</trkpt>
			<trkpt lat="31.87429" lon="35.022547">
				<ele>268.87531626261386</ele>
			</trkpt>
			<trkpt lat="31.874334" lon="35.022479">
				<ele>268.14877817493357</ele>
			</trkpt>
			<trkpt lat="31.874472" lon="35.022342">
				<ele>266.7352498497871</ele>
			</trkpt>
			<trkpt lat="31.874574" lon="35.022071">
				<ele>265.3728003849548</ele>
			</trkpt>
			<trkpt lat="31.8748" lon="35.021796">
				<ele>262.62920077807456</ele>
			</trkpt>
			<trkpt lat="31.874916" lon="35.021532">
				<ele>260.2925093654643</ele>
			</trkpt>
			<trkpt lat="31.875013" lon="35.02138">
				<ele>259.09558421482706</ele>
			</trkpt>
			<trkpt lat="31.875046" lon="35.021328">
				<ele>258.9530393368087</ele>
			</trkpt>
			<trkpt lat="31.875084" lon="35.021209">
				<ele>258.83298943652846</ele>
			</trkpt>
			<trkpt lat="31.875126" lon="35.020916">
				<ele>257.96202388169513</ele>
			</trkpt>
			<trkpt lat="31.875223" lon="35.020641">
				<ele>256.6848862136184</ele>
			</trkpt>
			<trkpt lat="31.875263" lon="35.020261">
				<ele>255.80965385728283</ele>
			</trkpt>
			<trkpt lat="31.875322" lon="35.019884">
				<ele>256.1205489891576</ele>
			</trkpt>
			<trkpt lat="31.875315" lon="35.019629">
				<ele>255.6202706439254</ele>
			</trkpt>
			<trkpt lat="31.875254" lon="35.019166">
				<ele>253.04543413261388</ele>
			</trkpt>
			<trkpt lat="31.875261" lon="35.018911">
				<ele>252.00147396632897</ele>
			</trkpt>
			<trkpt lat="31.875307" lon="35.018662">
				<ele>250.66917319070643</ele>
			</trkpt>
			<trkpt lat="31.875363" lon="35.018505">
				<ele>250.06999825874982</ele>
			</trkpt>
			<trkpt lat="31.875443" lon="35.018364">
				<ele>249.80312435191098</ele>
			</trkpt>
			<trkpt lat="31.87552" lon="35.018274">
				<ele>249.73917428063632</ele>
			</trkpt>
			<trkpt lat="31.87567" lon="35.018156">
				<ele>249.87289839267677</ele>
			</trkpt>
			<trkpt lat="31.875833" lon="35.017988">
				<ele>249.9667376537554</ele>
			</trkpt>
			<trkpt lat="31.875929" lon="35.01786">
				<ele>249.71314643710267</ele>
			</trkpt>
			<trkpt lat="31.875965" lon="35.017786">
				<ele>249.3373431474268</ele>
			</trkpt>
			<trkpt lat="31.876183" lon="35.01711">
				<ele>246.47520551536792</ele>
			</trkpt>
			<trkpt lat="31.876284" lon="35.016668">
				<ele>246.40499621248904</ele>
			</trkpt>
			<trkpt lat="31.876353" lon="35.01637">
				<ele>245.95133686959196</ele>
			</trkpt>
			<trkpt lat="31.87648" lon="35.015972">
				<ele>245.7</ele>
			</trkpt>
			<trkpt lat="31.876575" lon="35.015605">
				<ele>245.7708057142375</ele>
			</trkpt>
			<trkpt lat="31.8766" lon="35.015461">
				<ele>245.7146630110933</ele>
			</trkpt>
			<trkpt lat="31.876606" lon="35.015352">
				<ele>245.5427636438954</ele>
			</trkpt>
			<trkpt lat="31.87676" lon="35.015446">
				<ele>245.2842604343377</ele>
			</trkpt>
			<trkpt lat="31.87707" lon="35.015681">
				<ele>245.88107016984705</ele>
			</trkpt>
			<trkpt lat="31.87738" lon="35.015869">
				<ele>248.78572495793782</ele>
			</trkpt>
			<trkpt lat="31.877778" lon="35.01617">
				<ele>253.1390680314516</ele>
			</trkpt>
			<trkpt lat="31.878105" lon="35.016465">
				<ele>254.88303593592727</ele>
			</trkpt>
			<trkpt lat="31.878282" lon="35.016807">
				<ele>257.59940750214764</ele>
			</trkpt>
			<trkpt lat="31.878478" lon="35.017093">
				<ele>260.83830832259576</ele>
			</trkpt>
			<trkpt lat="31.878534" lon="35.017287">
				<ele>262.6123616833422</ele>
			</trkpt>
			<trkpt lat="31.878695" lon="35.017488">
				<ele>264.84241304152806</ele>
			</trkpt>
			<trkpt lat="31.878751" lon="35.017582">
				<ele>265.38452441687923</ele>
			</trkpt>
			<trkpt lat="31.878805" lon="35.017681">
				<ele>265.9400361778904</ele>
			</trkpt>
			<trkpt lat="31.878907" lon="35.017753">
				<ele>266.1192774079719</ele>
			</trkpt>
			<trkpt lat="31.87895" lon="35.017808">
				<ele>265.9075029392186</ele>
			</trkpt>
			<trkpt lat="31.879134" lon="35.017883">
				<ele>265.0528380050734</ele>
			</trkpt>
			<trkpt lat="31.879225" lon="35.017929">
				<ele>264.245323886517</ele>
			</trkpt>
			<trkpt lat="31.879249" lon="35.017953">
				<ele>263.98858129564985</ele>
			</trkpt>
			<trkpt lat="31.879281" lon="35.017954">
				<ele>263.7275520108693</ele>
			</trkpt>
			<trkpt lat="31.879312" lon="35.017939">
				<ele>263.4542623935509</ele>
			</trkpt>
			<trkpt lat="31.879341" lon="35.017943">
				<ele>263.21617134122465</ele>
			</trkpt>
			<trkpt lat="31.879357" lon="35.017956">
				<ele>263.0835422087183</ele>
			</trkpt>
			<trkpt lat="31.879365" lon="35.017982">
				<ele>262.92687132929615</ele>
			</trkpt>
			<trkpt lat="31.879377" lon="35.018032">
				<ele>262.63250739411296</ele>
			</trkpt>
			<trkpt lat="31.879439" lon="35.018131">
				<ele>261.93560226000335</ele>
			</trkpt>
			<trkpt lat="31.879551" lon="35.018257">
				<ele>261.23406828044864</ele>
			</trkpt>
			<trkpt lat="31.879532" lon="35.018307">
				<ele>261.13062273403864</ele>
			</trkpt>
			<trkpt lat="31.879527" lon="35.018362">
				<ele>261.0261646514105</ele>
			</trkpt>
			<trkpt lat="31.879538" lon="35.018415">
				<ele>260.92313080208896</ele>
			</trkpt>
			<trkpt lat="31.879562" lon="35.018462">
				<ele>260.8195618030656</ele>
			</trkpt>
			<trkpt lat="31.879598" lon="35.018497">
				<ele>260.82808557541307</ele>
			</trkpt>
		</trkseg>
	</trk>
</gpx>